     2.100          NAVIGATION                              RINEX VERSION / TYPE
fic2rin                                 10/05/2010 00:16:42 PGM / RUN BY / DATE
                                                            END OF HEADER
19 10 10  4 20  0  0.0 -.714380294085D-04 -.329691829393D-11  .000000000000D+00
     .340000000000D+02 -.640000000000D+02  .446090010011D-08 -.291654663605D+01
    -.321306288242D-05  .670221389737D-02  .119656324387D-04  .515358466339D+04
     .158400000000D+06 -.117346644402D-06  .230370429316D+01  .130385160446D-07
     .958213493872D+00  .149312500000D+03 -.509405483926D-01 -.788461414011D-08
    -.141077305007D-09  .100000000000D+01  .160400000000D+04  .000000000000D+00
     .240000000000D+01  .000000000000D+00 -.149011611938D-07  .340000000000D+02
     .151206000000D+06  .400000000000D+01
20 10 10  4 20  0  0.0  .505209900439D-04 -.341060513165D-12  .000000000000D+00
     .340000000000D+02 -.621875000000D+01  .567095050357D-08 -.332941961992D+00
    -.344589352608D-06  .424032739829D-02  .350922346115D-05  .515381291389D+04
     .158400000000D+06 -.484287738800D-07 -.199926192250D+01 -.335276126862D-07
     .935475631732D+00  .296125000000D+03  .127177320449D+01 -.894215819107D-08
    -.260725145963D-09  .100000000000D+01  .160400000000D+04  .000000000000D+00
     .240000000000D+01  .000000000000D+00 -.791624188423D-08  .340000000000D+02
     .151206000000D+06  .400000000000D+01
21 10 10  4 20  0  0.0 -.928160734475D-04 -.272848410532D-11  .000000000000D+00
     .360000000000D+02  .638750000000D+02  .546272754453D-08  .459196299483D+00
     .359117984772D-05  .168607881060D-01  .945664942265D-05  .515363033104D+04
     .158400000000D+06 -.335276126862D-07 -.300128668220D+01  .154599547386D-06
     .932688926398D+00  .181625000000D+03 -.244130776771D+01 -.877822279107D-08
     .315370279295D-09  .100000000000D+01  .160400000000D+04  .000000000000D+00
     .240000000000D+01  .000000000000D+00 -.121071934700D-07  .360000000000D+02
     .151206000000D+06  .400000000000D+01
22 10 10  4 20  0  0.0  .161621253937D-03 -.795807864051D-12  .000000000000D+00
     .420000000000D+02 -.133750000000D+02  .564344935803D-08 -.161258085275D+01
    -.789761543274D-06  .559370603878D-02  .356882810593D-05  .515371227455D+04
     .158400000000D+06  .180676579475D-06 -.194064120779D+01  .819563865662D-07
     .933154931637D+00  .297937500000D+03 -.193119861580D+01 -.877929426427D-08
    -.325727853587D-09  .100000000000D+01  .160400000000D+04  .000000000000D+00
     .240000000000D+01  .000000000000D+00 -.176951289177D-07  .420000000000D+02
     .151206000000D+06  .400000000000D+01
23 10 10  4 20  0  0.0  .350580085069D-03 -.193267624127D-11  .000000000000D+00
     .350000000000D+02 -.325937500000D+02  .408052711319D-08  .292454039640D+01
    -.176206231117D-05  .700401363429D-02  .115856528282D-04  .515364412117D+04
     .158400000000D+06 -.633299350739D-07 -.908283811632D+00  .372529029846D-07
     .966734820523D+00  .161000000000D+03  .311025439993D+01 -.778460997454D-08
    -.446804325479D-09  .100000000000D+01  .160400000000D+04  .000000000000D+00
     .240000000000D+01  .000000000000D+00 -.200234353542D-07  .350000000000D+02
     .151206000000D+06  .400000000000D+01
24 10 10  4 20  0  0.0  .327320769429D-03  .329691829393D-11  .000000000000D+00
     .690000000000D+02  .729062500000D+02  .486770275936D-08  .302925148919D+01
     .380538403988D-05  .574900861830D-02  .931695103645D-05  .515477097893D+04
     .158400000000D+06 -.171363353729D-06 -.296050267664D+01  .987201929092D-07
     .949292364877D+00  .191843750000D+03 -.369018363005D+00 -.817569769348D-08
     .470019578202D-09  .100000000000D+01  .160400000000D+04  .000000000000D+00
     .340000000000D+01  .000000000000D+00 -.139698386192D-08  .690000000000D+02
     .151206000000D+06  .400000000000D+01
25 10 10  4 20  0  0.0 -.440641306341D-04 -.181898940355D-11  .000000000000D+00
     .710000000000D+02 -.304687500000D+02  .508021161121D-08 -.147309988816D+01
    -.153109431267D-05  .731276697479D-03  .284425914288D-05  .515375966644D+04
     .158400000000D+06  .186264514923D-07  .116090692046D+01  .409781932831D-07
     .960693554023D+00  .328375000000D+03  .194307838250D+01 -.864428864075D-08
     .125005206969D-10  .100000000000D+01  .160400000000D+04  .100000000000D+01
     .240000000000D+01  .000000000000D+00  .465661287308D-08  .710000000000D+02
     .151206000000D+06  .400000000000D+01
26 10 10  4 20  0  0.0 -.233664177358D-04 -.727595761418D-11  .000000000000D+00
     .270000000000D+02 -.168437500000D+02  .341621372759D-08  .264672879774D+01
    -.942498445511D-06  .198239403544D-01  .131614506245D-04  .515364750099D+04
     .158400000000D+06  .160187482834D-06 -.848311340144D+00 -.193715095520D-06
     .989533155308D+00  .134468750000D+03  .111181813084D+01 -.724673042684D-08
    -.395373611755D-09  .100000000000D+01  .160400000000D+04  .000000000000D+00
     .240000000000D+01  .000000000000D+00 -.605359673500D-08  .270000000000D+02
     .151206000000D+06  .400000000000D+01
27 10 10  4 20  0  0.0  .195105560124D-03  .352429196937D-11  .000000000000D+00
     .139000000000D+03  .113218750000D+03  .390766276984D-08 -.250243142845D+01
     .579841434956D-05  .216243697796D-01  .900402665138D-05  .515357653618D+04
     .158400000000D+06  .286847352982D-06  .784466267026D-01  .165775418282D-06
     .979764320877D+00  .206687500000D+03 -.136548890113D+01 -.759674500635D-08
     .597524889310D-09  .100000000000D+01  .160400000000D+04  .000000000000D+00
     .340000000000D+01  .000000000000D+00 -.419095158577D-08  .139000000000D+03
     .151206000000D+06  .400000000000D+01
28 10 10  4 20  0  0.0 -.990927219391D-06  .159161572810D-11  .000000000000D+00
     .740000000000D+02 -.413437500000D+02  .472912555849D-08 -.146609611811D+01
    -.177137553692D-05  .162286489503D-01  .329501926899D-05  .515367539024D+04
     .158400000000D+06  .238418579102D-06  .121313805079D+01  .262632966042D-06
     .971357998605D+00  .315812500000D+03 -.194413928923D+01 -.835570519152D-08
    -.300012496725D-10  .100000000000D+01  .160400000000D+04  .000000000000D+00
     .240000000000D+01  .000000000000D+00 -.107102096081D-07  .740000000000D+02
     .151206000000D+06  .400000000000D+01
29 10 10  4 20  0  0.0  .153956469148D-03  .272848410532D-11  .000000000000D+00
     .115000000000D+03 -.911875000000D+02  .449197282298D-08  .577151795295D+00
    -.462122261524D-05  .261044094805D-02  .120941549540D-04  .515366777039D+04
     .158400000000D+06 -.223517417908D-07  .225731869674D+01 -.260770320892D-07
     .960960115252D+00  .148218750000D+03 -.124477168809D+01 -.808462247126D-08
    -.162149611325D-09  .100000000000D+01  .160400000000D+04  .000000000000D+00
     .340000000000D+01  .000000000000D+00 -.884756445885D-08  .115000000000D+03
     .151206000000D+06  .400000000000D+01
30 10 10  4 20  0  0.0  .284221023321D-03  .352429196937D-11  .000000000000D+00
     .790000000000D+02 -.220625000000D+02  .520593113364D-08 -.115261830604D+01
    -.819563865662D-06  .131447343156D-01  .298954546452D-05  .515534364319D+04
     .158400000000D+06 -.135973095894D-06  .113237853744D+01  .271946191788D-06
     .957344407889D+00  .325281250000D+03  .154869787250D+01 -.881286709129D-08
     .571452374714D-10  .100000000000D+01  .160400000000D+04  .000000000000D+00
     .340000000000D+01  .000000000000D+00 -.791624188423D-08  .790000000000D+02
     .151206000000D+06  .400000000000D+01
31 10 10  4 20  0  0.0 -.371318310499D-05  .329691829393D-11  .000000000000D+00
     .570000000000D+02  .800625000000D+02  .400302388487D-08  .129527702567D+01
     .422447919846D-05  .744551676326D-02  .923313200474D-05  .515377525711D+04
     .158400000000D+06  .104308128357D-06  .134142562936D+00 -.180676579475D-06
     .978296105571D+00  .206875000000D+03 -.105307320708D+01 -.792890169915D-08
     .509664086698D-09  .100000000000D+01  .160400000000D+04  .000000000000D+00
     .240000000000D+01  .000000000000D+00 -.130385160446D-07  .570000000000D+02
     .151206000000D+06  .400000000000D+01
32 10 10  4 20  0  0.0 -.100799836218D-03 -.886757334229D-11  .000000000000D+00
     .330000000000D+02 -.210625000000D+02  .503020952842D-08  .210270882000D+01
    -.107102096081D-05  .126615667250D-01  .385567545891D-05  .515361067009D+04
     .158400000000D+06  .171363353729D-06 -.187922287292D+01  .186264514923D-07
     .957291677007D+00  .298718750000D+03 -.923597722935D+00 -.838606359892D-08
    -.467162316328D-09  .100000000000D+01  .160400000000D+04  .000000000000D+00
     .240000000000D+01  .000000000000D+00 -.325962901115D-08  .330000000000D+02
     .151206000000D+06  .400000000000D+01
29 10 10  4 19 59 44.0  .153952278197D-03  .272848410532D-11  .000000000000D+00
     .900000000000D+01 -.911875000000D+02  .449197282298D-08  .574818297592D+00
    -.462122261524D-05  .261043594219D-02  .120941549540D-04  .515366777802D+04
     .158384000000D+06 -.223517417908D-07  .225731885327D+01 -.260770320892D-07
     .960960097697D+00  .148218750000D+03 -.124477203773D+01 -.808426531353D-08
    -.162506769059D-09  .100000000000D+01  .160400000000D+04  .000000000000D+00
     .240000000000D+01  .000000000000D+00 -.884756445885D-08  .900000000000D+01
     .153816000000D+06  .400000000000D+01
29 10 10  4 21 59 44.0  .153971835971D-03  .272848410532D-11  .000000000000D+00
     .100000000000D+02 -.839687500000D+02  .447697219815D-08  .162574213715D+01
    -.424869358540D-05  .260925630573D-02  .129044055939D-04  .515366353989D+04
     .165584000000D+06  .949949026108D-07  .225726095829D+01 -.465661287308D-07
     .960959493512D+00  .133343750000D+03 -.124550999944D+01 -.796604610351D-08
    -.155363614375D-09  .100000000000D+01  .160400000000D+04  .000000000000D+00
     .240000000000D+01  .000000000000D+00 -.884756445885D-08  .100000000000D+02
     .158406000000D+06  .400000000000D+01
